[{"OBJECT_NAME":"STARLINK-35789","OBJECT_ID":"2025-299M","EPOCH":"2026-03-09T07:14:56.412384","MEAN_MOTION":15.28434906,"ECCENTRICITY":0.00017825,"INCLINATION":43.001,"RA_OF_ASC_NODE":171.4723,"ARG_OF_PERICENTER":273.4705,"MEAN_ANOMALY":86.5943,"EPHEMERIS_TYPE":0,"CLASSIFICATION_TYPE":"U","NORAD_CAT_ID":67113,"ELEMENT_SET_NO":999,"REV_AT_EPOCH":1305,"BSTAR":0.00093654457,"MEAN_MOTION_DOT":0.00026284,"MEAN_MOTION_DDOT":0},{"OBJECT_NAME":"OBJECT P","OBJECT_ID":"2018-099P","EPOCH":"2026-03-09T16:35:55.790016","MEAN_MOTION":15.30834106,"ECCENTRICITY":0.00076856,"INCLINATION":97.4366,"RA_OF_ASC_NODE":131.9195,"ARG_OF_PERICENTER":276.7627,"MEAN_ANOMALY":83.2739,"EPHEMERIS_TYPE":0,"CLASSIFICATION_TYPE":"U","NORAD_CAT_ID":43771,"ELEMENT_SET_NO":999,"REV_AT_EPOCH":39830,"BSTAR":0.00063632878,"MEAN_MOTION_DOT":0.00018926,"MEAN_MOTION_DDOT":0}]
